ONEWEB-0389             
1 50469U 21132A   25273.42107387  .00000023  00000+0  26035-4 0  9998
2 50469  87.9077  57.5311 0001884  85.2044 274.9302 13.17648146183875
ONEWEB-0390             
1 50470U 21132B   25273.34683045  .00000050  00000+0  96264-4 0  9992
2 50470  87.9074  57.5518 0001891  99.7127 260.4218 13.17650684183868
ONEWEB-0391             
1 50471U 21132C   25272.96884803 -.00000028  00000+0 -10625-3 0  9998
2 50471  87.9069  57.6391 0002451  82.7866 277.3544 13.17648494183818
ONEWEB-0392             
1 50472U 21132D   25273.37889779  .00000021  00000+0  21781-4 0  9999
2 50472  87.9077  57.5037 0001953  86.8927 273.2428 13.17647851183905
ONEWEB-0393             
1 50473U 21132E   25272.89641850  .00000018  00000+0  14453-4 0  9996
2 50473  87.9080  57.6199 0001786  90.3826 269.7510 13.17647770183836
ONEWEB-0394             
1 50474U 21132F   25273.29670495  .00000078  00000+0  16638-3 0  9991
2 50474  87.9215  27.0449 0001751  94.1666 265.9666 13.18685189187349
ONEWEB-0395             
1 50475U 21132G   25273.45283640  .00000058  00000+0  12649-3 0  9998
2 50475  87.8789  72.8142 0001888  92.5329 267.6015 13.11414030181677
ONEWEB-0396             
1 50476U 21132H   25273.29010273 -.00000023  00000+0 -90446-4 0  9997
2 50476  87.9216  27.0586 0001752  93.4594 266.6739 13.18685712187382
ONEWEB-0397             
1 50477U 21132J   25273.30494367  .00000131  00000+0  29850-3 0  9998
2 50477  87.9216  27.0564 0001619  94.8668 265.2649 13.18687671187367
ONEWEB-0398             
1 50478U 21132K   25273.49690595 -.00001007  00000+0 -28769-2 0  9992
2 50478  87.8799  72.7718 0001815  98.5622 261.5711 13.11421160181578
ONEWEB-0399             
1 50479U 21132L   25273.40705727 -.00000402  00000+0 -11699-2 0  9990
2 50479  87.8790  72.8106 0001853  76.3087 283.8247 13.11418062181559
ONEWEB-0400             
1 50480U 21132M   25273.28349576  .00000061  00000+0  12314-3 0  9999
2 50480  87.9215  27.0504 0001873 104.5833 255.5507 13.18687740187350
ONEWEB-0401             
1 50481U 21132N   25272.87277421  .00000124  00000+0  28204-3 0  9998
2 50481  87.9217  27.1289 0001517  97.9053 262.2251 13.18688151187301
ONEWEB-0402             
1 50482U 21132P   25272.83649238  .00000025  00000+0  31247-4 0  9996
2 50482  87.9216  27.1292 0001098  95.0139 265.1119 13.18687874187321
ONEWEB-0403             
1 50483U 21132Q   25273.39236642 -.00000083  00000+0 -24256-3 0  9997
2 50483  87.9217  27.0383 0001774  95.5208 264.6126 13.18687123187358
ONEWEB-0404             
1 50484U 21132R   25273.46468950 -.00000418  00000+0 -12141-2 0  9996
2 50484  87.8791  72.8061 0001929  83.9257 276.2090 13.11414457181650
ONEWEB-0405             
1 50485U 21132S   25272.87608714  .00000103  00000+0  22772-3 0  9996
2 50485  87.9215  27.1258 0001479  91.9226 268.2075 13.18686611187682
ONEWEB-0406             
1 50486U 21132T   25273.39731910  .00001061  00000+0  26583-2 0  9997
2 50486  87.9206  27.0447 0002360  95.0208 265.1194 13.18695091187384
ONEWEB-0407             
1 50487U 21132U   25272.78370701  .00000061  00000+0  12130-3 0  9990
2 50487  87.9215  27.1526 0001523 100.6193 259.5111 13.18687469187241
ONEWEB-0409             
1 50488U 21132V   25273.46299716 -.00000374  00000+0 -10900-2 0  9994
2 50488  87.8795  72.7665 0001957  90.0063 270.1289 13.11414165181549
ONEWEB-0412             
1 50489U 21132W   25273.30329972  .00000105  00000+0  23295-3 0  9998
2 50489  87.9215  27.0618 0001432  96.8349 263.2946 13.18686095187402
ONEWEB-0413             
1 50490U 21132X   25273.08062186  .00000111  00000+0  24867-3 0  9999
2 50490  87.9217  27.1232 0001353 102.7099 257.4184 13.18685576187312
ONEWEB-0414             
1 50491U 21132Y   25273.29340352 -.00000077  00000+0 -22782-3 0  9994
2 50491  87.9216  27.0399 0001588  91.6176 268.5138 13.18685192187379
ONEWEB-0417             
1 50492U 21132Z   25273.30164894  .00000078  00000+0  16528-3 0  9992
2 50492  87.9216  27.0715 0001955  95.8681 264.2674 13.18685235187351
ONEWEB-0418             
1 50493U 21132AA  25273.08378757  .00000121  00000+0  27468-3 0  9997
2 50493  87.9217  27.1002 0002157  92.2720 267.8659 13.18685589187380
ONEWEB-0419             
1 50494U 21132AB  25273.40557338  .00000144  00000+0  33145-3 0  9992
2 50494  87.9213  27.0366 0002052 101.7197 258.4165 13.18686979187345
ONEWEB-0420             
1 50495U 21132AC  25273.06742169  .00000191  00000+0  45071-3 0  9996
2 50495  87.9215  27.1147 0001425 109.2440 250.8846 13.18684581187296
ONEWEB-0421             
1 50496U 21132AD  25273.28845497 -.00000001  00000+0 -35413-4 0  9991
2 50496  87.9217  27.0644 0001527  92.0167 268.1140 13.18687001187365
ONEWEB-0424             
1 50497U 21132AE  25273.24886176  .00000139  00000+0  31957-3 0  9995
2 50497  87.9218  27.0674 0002083 105.5854 254.5508 13.18687443187380
ONEWEB-0426             
1 50498U 21132AF  25272.82990220  .00000029  00000+0  41983-4 0  9994
2 50498  87.9215  27.1420 0001825  76.6602 283.4734 13.18685436187270
ONEWEB-0427             
1 50499U 21132AG  25273.24720394  .00000073  00000+0  15117-3 0  9993
2 50499  87.9215  27.0486 0001891  95.3417 264.7930 13.18688263187357
ONEWEB-0429             
1 50500U 21132AH  25273.08226409  .00000128  00000+0  29294-3 0  9998
2 50500  87.9213  27.1117 0001632 104.2954 255.8359 13.18684817187301
ONEWEB-0430             
1 50501U 21132AJ  25273.29835039  .00000089  00000+0  19182-3 0  9998
2 50501  87.9215  27.0634 0001846 108.3094 251.8239 13.18685629187376
ONEWEB-0432             
1 50502U 21132AK  25272.79863831  .00000198  00000+0  46998-3 0  9990
2 50502  87.9208  27.1388 0002634  98.0323 262.1108 13.18691541187260
ONEWEB-0440             
1 50503U 21132AL  25273.39401338 -.00000086  00000+0 -25081-3 0  9996
2 50503  87.9221  27.0342 0001277  92.0703 268.0576 13.18687883187339
ONEWEB-0450             
1 50504U 21132AM  25273.08403410  .00000103  00000+0  22910-3 0  9992
2 50504  87.9215  27.1202 0001600 110.5264 249.6041 13.18689197187328
ONEWEB-0410             
1 51622U 22012A   25273.43965679 -.00000007  00000+0 -51846-4 0  9997
2 51622  87.9078  57.4979 0002737  69.2459 290.8966 13.17648587179492
ONEWEB-0411             
1 51623U 22012B   25273.47387301  .00000672  00000+0  18897-2 0  9995
2 51623  87.8739  88.0517 0001877 106.6297 253.5037 13.10374140175275
ONEWEB-0415             
1 51624U 22012C   25273.47055049  .00000591  00000+0  16557-2 0  9998
2 51624  87.8738  88.0544 0001778  98.3830 261.7499 13.10374531175272
ONEWEB-0416             
1 51625U 22012D   25273.48216991  .00000601  00000+0  16843-2 0  9995
2 51625  87.8738  88.0723 0001723  91.2004 268.9321 13.10371936175311
ONEWEB-0422             
1 51626U 22012E   25273.37383677  .00000043  00000+0  77454-4 0  9997
2 51626  87.9077  57.5160 0001013 110.9854 249.1386 13.17648618179596
ONEWEB-0423             
1 51627U 22012F   25273.44302461 -.00000013  00000+0 -66748-4 0  9991
2 51627  87.9078  57.5118 0001571  93.5482 266.5829 13.17647983179491
ONEWEB-0425             
1 51628U 22012G   25273.49212566  .00000295  00000+0  80765-3 0  9997
2 51628  87.8734  88.0394 0001777  76.9648 283.1678 13.10370013175316
ONEWEB-0428             
1 51629U 22012H   25273.47221104  .00000606  00000+0  16982-2 0  9999
2 51629  87.8740  88.0650 0001504  93.2304 266.8996 13.10374604175274
ONEWEB-0431             
1 51630U 22012J   25273.51852935 -.00000581  00000+0 -17015-2 0  9990
2 51630  87.8748  88.0293 0001772 112.4317 247.6998 13.10372921175338
ONEWEB-0434             
1 51631U 22012K   25273.49544341  .00000072  00000+0  16925-3 0  9990
2 51631  87.8736  88.0743 0001913  68.4621 291.6710 13.10370278175313
ONEWEB-0435             
1 51632U 22012L   25273.50373522 -.00000372  00000+0 -11030-2 0  9990
2 51632  87.8735  88.0642 0001244  94.0145 266.1125 13.10370575175300
ONEWEB-0436             
1 51633U 22012M   25273.43458875 -.00000024  00000+0 -95195-4 0  9998
2 51633  87.9076  57.4928 0001559 103.0875 257.0431 13.17648250179473
ONEWEB-0438             
1 51634U 22012N   25273.48714861  .00000467  00000+0  13023-2 0  9991
2 51634  87.8734  88.0682 0001719  82.2977 277.8345 13.10370910175333
ONEWEB-0439             
1 51635U 22012P   25273.49046644  .00000303  00000+0  83186-3 0  9997
2 51635  87.8735  88.0562 0001560  86.5356 273.5950 13.10370036175316
ONEWEB-0442             
1 51636U 22012Q   25273.35105433  .00000064  00000+0  13092-3 0  9998
2 51636  87.9067  57.5629 0002191  82.8165 277.3216 13.17650251179452
ONEWEB-0443             
1 51637U 22012R   25273.44639189 -.00000008  00000+0 -54793-4 0  9993
2 51637  87.9065  57.5508 0001569  82.9615 277.1695 13.17652574179512
ONEWEB-0444             
1 51638U 22012S   25273.48051013  .00000614  00000+0  17211-2 0  9995
2 51638  87.8735  88.0579 0001475  84.7335 275.3960 13.10372780175329
ONEWEB-0445             
1 51639U 22012T   25273.50206878 -.00000280  00000+0 -83900-3 0  9990
2 51639  87.8748  88.0094 0001810  90.2126 269.9208 13.10371404175336
ONEWEB-0446             
1 51640U 22012U   25273.47885256  .00000700  00000+0  19700-2 0  9992
2 51640  87.8738  88.0743 0001820  93.8242 266.3094 13.10372958175314
ONEWEB-0448             
1 51641U 22012V   25273.48382852  .00000585  00000+0  16408-2 0  9991
2 51641  87.8738  88.0727 0001555  88.3186 271.8119 13.10371396175288
ONEWEB-0449             
1 51642U 22012W   25273.48880885  .00000408  00000+0  11324-2 0  9997
2 51642  87.8732  88.0420 0001821  73.0538 287.0789 13.10370630175294
ONEWEB-0451             
1 51643U 22012X   25273.43120101 -.00000024  00000+0 -96212-4 0  9998
2 51643  87.9079  57.4870 0001706  91.4104 268.7223 13.17647956179450
ONEWEB-0452             
1 51644U 22012Y   25273.35358873  .00000076  00000+0  16288-3 0  9998
2 51644  87.9069  57.5633 0001602  83.1783 276.9530 13.17648704179458
